CCSDS_OMM_VERS = 2.0
CREATION_DATE  = 
ORIGINATOR     = 

OBJECT_NAME    = STARLINK-36237
OBJECT_ID      = 2026-059S
CENTER_NAME    = EARTH
REF_FRAME      = TEME
TIME_SYSTEM    = UTC
MEAN_ELEMENT_THEORY = SGP/SGP4

EPOCH          = 2026-04-02T06:00:02.999808
MEAN_MOTION    = 15.80824699
ECCENTRICITY   = .00009484
INCLINATION    = 53.1595
RA_OF_ASC_NODE = 244.6739
ARG_OF_PERICENTER = 99.4849
MEAN_ANOMALY   = 193.8020

EPHEMERIS_TYPE = 0
CLASSIFICATION_TYPE = U
NORAD_CAT_ID   = 68337
ELEMENT_SET_NO = 999
REV_AT_EPOCH   = 282
BSTAR          = .24788405E-3
MEAN_MOTION_DOT = .48391E-3
MEAN_MOTION_DDOT = 0

CCSDS_OMM_VERS = 2.0
CREATION_DATE  = 
ORIGINATOR     = 

OBJECT_NAME    = STARLINK-36254
OBJECT_ID      = 2026-059T
CENTER_NAME    = EARTH
REF_FRAME      = TEME
TIME_SYSTEM    = UTC
MEAN_ELEMENT_THEORY = SGP/SGP4

EPOCH          = 2026-04-02T06:00:02.999808
MEAN_MOTION    = 15.80828494
ECCENTRICITY   = .00010728
INCLINATION    = 53.1596
RA_OF_ASC_NODE = 244.6561
ARG_OF_PERICENTER = 85.5244
MEAN_ANOMALY   = 216.3033

EPHEMERIS_TYPE = 0
CLASSIFICATION_TYPE = U
NORAD_CAT_ID   = 68338
ELEMENT_SET_NO = 999
REV_AT_EPOCH   = 282
BSTAR          = .17569527E-3
MEAN_MOTION_DOT = .34043E-3
MEAN_MOTION_DDOT = 0

CCSDS_OMM_VERS = 2.0
CREATION_DATE  = 
ORIGINATOR     = 

OBJECT_NAME    = STARLINK-37200
OBJECT_ID      = 2026-059U
CENTER_NAME    = EARTH
REF_FRAME      = TEME
TIME_SYSTEM    = UTC
MEAN_ELEMENT_THEORY = SGP/SGP4

EPOCH          = 2026-04-02T06:00:02.999808
MEAN_MOTION    = 15.80848063
ECCENTRICITY   = .00008243
INCLINATION    = 53.1595
RA_OF_ASC_NODE = 244.6653
ARG_OF_PERICENTER = 115.5922
MEAN_ANOMALY   = 181.9539

EPHEMERIS_TYPE = 0
CLASSIFICATION_TYPE = U
NORAD_CAT_ID   = 68339
ELEMENT_SET_NO = 999
REV_AT_EPOCH   = 282
BSTAR          = .88010421E-4
MEAN_MOTION_DOT = .16686E-3
MEAN_MOTION_DDOT = 0

CCSDS_OMM_VERS = 2.0
CREATION_DATE  = 
ORIGINATOR     = 

OBJECT_NAME    = STARLINK-37185
OBJECT_ID      = 2026-059V
CENTER_NAME    = EARTH
REF_FRAME      = TEME
TIME_SYSTEM    = UTC
MEAN_ELEMENT_THEORY = SGP/SGP4

EPOCH          = 2026-04-02T06:00:02.999808
MEAN_MOTION    = 15.80868131
ECCENTRICITY   = .00008078
INCLINATION    = 53.1595
RA_OF_ASC_NODE = 244.6478
ARG_OF_PERICENTER = 81.7369
MEAN_ANOMALY   = 224.3538

EPHEMERIS_TYPE = 0
CLASSIFICATION_TYPE = U
NORAD_CAT_ID   = 68340
ELEMENT_SET_NO = 999
REV_AT_EPOCH   = 282
BSTAR          = -.3462474E-3
MEAN_MOTION_DOT = -.6848E-3
MEAN_MOTION_DDOT = 0

CCSDS_OMM_VERS = 2.0
CREATION_DATE  = 
ORIGINATOR     = 

OBJECT_NAME    = STARLINK-37181
OBJECT_ID      = 2026-059W
CENTER_NAME    = EARTH
REF_FRAME      = TEME
TIME_SYSTEM    = UTC
MEAN_ELEMENT_THEORY = SGP/SGP4

EPOCH          = 2026-04-02T06:00:02.999808
MEAN_MOTION    = 15.80860341
ECCENTRICITY   = .00010327
INCLINATION    = 53.1594
RA_OF_ASC_NODE = 244.6385
ARG_OF_PERICENTER = 64.0900
MEAN_ANOMALY   = 246.2710

EPHEMERIS_TYPE = 0
CLASSIFICATION_TYPE = U
NORAD_CAT_ID   = 68341
ELEMENT_SET_NO = 999
REV_AT_EPOCH   = 282
BSTAR          = .86153336E-4
MEAN_MOTION_DOT = .16327E-3
MEAN_MOTION_DDOT = 0

CCSDS_OMM_VERS = 2.0
CREATION_DATE  = 
ORIGINATOR     = 

OBJECT_NAME    = STARLINK-37192
OBJECT_ID      = 2026-059X
CENTER_NAME    = EARTH
REF_FRAME      = TEME
TIME_SYSTEM    = UTC
MEAN_ELEMENT_THEORY = SGP/SGP4

EPOCH          = 2026-04-02T06:00:02.999808
MEAN_MOTION    = 15.80835731
ECCENTRICITY   = .00010547
INCLINATION    = 53.1594
RA_OF_ASC_NODE = 244.6209
ARG_OF_PERICENTER = 87.5371
MEAN_ANOMALY   = 231.3811

EPHEMERIS_TYPE = 0
CLASSIFICATION_TYPE = U
NORAD_CAT_ID   = 68342
ELEMENT_SET_NO = 999
REV_AT_EPOCH   = 282
BSTAR          = .20515315E-3
MEAN_MOTION_DOT = .39909E-3
MEAN_MOTION_DDOT = 0

CCSDS_OMM_VERS = 2.0
CREATION_DATE  = 
ORIGINATOR     = 

OBJECT_NAME    = STARLINK-37158
OBJECT_ID      = 2026-059Y
CENTER_NAME    = EARTH
REF_FRAME      = TEME
TIME_SYSTEM    = UTC
MEAN_ELEMENT_THEORY = SGP/SGP4

EPOCH          = 2026-04-02T06:00:02.999808
MEAN_MOTION    = 15.80877413
ECCENTRICITY   = .00008043
INCLINATION    = 53.1594
RA_OF_ASC_NODE = 244.6121
ARG_OF_PERICENTER = 65.9832
MEAN_ANOMALY   = 257.1890

EPHEMERIS_TYPE = 0
CLASSIFICATION_TYPE = U
NORAD_CAT_ID   = 68343
ELEMENT_SET_NO = 999
REV_AT_EPOCH   = 282
BSTAR          = -.22596073E-3
MEAN_MOTION_DOT = -.45071E-3
MEAN_MOTION_DDOT = 0

CCSDS_OMM_VERS = 2.0
CREATION_DATE  = 
ORIGINATOR     = 

OBJECT_NAME    = STARLINK-36380
OBJECT_ID      = 2026-059Z
CENTER_NAME    = EARTH
REF_FRAME      = TEME
TIME_SYSTEM    = UTC
MEAN_ELEMENT_THEORY = SGP/SGP4

EPOCH          = 2026-04-02T06:00:02.999808
MEAN_MOTION    = 15.80836871
ECCENTRICITY   = .00004821
INCLINATION    = 53.1592
RA_OF_ASC_NODE = 244.6299
ARG_OF_PERICENTER = 22.9730
MEAN_ANOMALY   = 291.6690

EPHEMERIS_TYPE = 0
CLASSIFICATION_TYPE = U
NORAD_CAT_ID   = 68344
ELEMENT_SET_NO = 999
REV_AT_EPOCH   = 282
BSTAR          = .13048285E-3
MEAN_MOTION_DOT = .25087E-3
MEAN_MOTION_DDOT = 0

CCSDS_OMM_VERS = 2.0
CREATION_DATE  = 
ORIGINATOR     = 

OBJECT_NAME    = STARLINK-37214
OBJECT_ID      = 2026-059AA
CENTER_NAME    = EARTH
REF_FRAME      = TEME
TIME_SYSTEM    = UTC
MEAN_ELEMENT_THEORY = SGP/SGP4

EPOCH          = 2026-04-02T06:00:02.999808
MEAN_MOTION    = 15.80833362
ECCENTRICITY   = .00004364
INCLINATION    = 53.1593
RA_OF_ASC_NODE = 244.5941
ARG_OF_PERICENTER = 62.3262
MEAN_ANOMALY   = 269.4055

EPHEMERIS_TYPE = 0
CLASSIFICATION_TYPE = U
NORAD_CAT_ID   = 68345
ELEMENT_SET_NO = 999
REV_AT_EPOCH   = 282
BSTAR          = .17443787E-3
MEAN_MOTION_DOT = .33802E-3
MEAN_MOTION_DDOT = 0

CCSDS_OMM_VERS = 2.0
CREATION_DATE  = 
ORIGINATOR     = 

OBJECT_NAME    = STARLINK-37169
OBJECT_ID      = 2026-059AB
CENTER_NAME    = EARTH
REF_FRAME      = TEME
TIME_SYSTEM    = UTC
MEAN_ELEMENT_THEORY = SGP/SGP4

EPOCH          = 2026-04-02T06:00:02.999808
MEAN_MOTION    = 15.80847306
ECCENTRICITY   = .00006188
INCLINATION    = 53.1593
RA_OF_ASC_NODE = 244.5850
ARG_OF_PERICENTER = 96.3835
MEAN_ANOMALY   = 239.6071

EPHEMERIS_TYPE = 0
CLASSIFICATION_TYPE = U
NORAD_CAT_ID   = 68346
ELEMENT_SET_NO = 999
REV_AT_EPOCH   = 282
BSTAR          = .10164458E-3
MEAN_MOTION_DOT = .19384E-3
MEAN_MOTION_DDOT = 0

CCSDS_OMM_VERS = 2.0
CREATION_DATE  = 
ORIGINATOR     = 

OBJECT_NAME    = STARLINK-37136
OBJECT_ID      = 2026-059AC
CENTER_NAME    = EARTH
REF_FRAME      = TEME
TIME_SYSTEM    = UTC
MEAN_ELEMENT_THEORY = SGP/SGP4

EPOCH          = 2026-04-02T06:00:02.999808
MEAN_MOTION    = 15.80844613
ECCENTRICITY   = .00010805
INCLINATION    = 53.1594
RA_OF_ASC_NODE = 244.5765
ARG_OF_PERICENTER = 85.7512
MEAN_ANOMALY   = 254.5048

EPHEMERIS_TYPE = 0
CLASSIFICATION_TYPE = U
NORAD_CAT_ID   = 68347
ELEMENT_SET_NO = 999
REV_AT_EPOCH   = 282
BSTAR          = .19708112E-3
MEAN_MOTION_DOT = .3832E-3
MEAN_MOTION_DDOT = 0

CCSDS_OMM_VERS = 2.0
CREATION_DATE  = 
ORIGINATOR     = 

OBJECT_NAME    = STARLINK-37182
OBJECT_ID      = 2026-059AD
CENTER_NAME    = EARTH
REF_FRAME      = TEME
TIME_SYSTEM    = UTC
MEAN_ELEMENT_THEORY = SGP/SGP4

EPOCH          = 2026-04-02T06:00:02.999808
MEAN_MOTION    = 15.80891208
ECCENTRICITY   = .0001033
INCLINATION    = 53.1594
RA_OF_ASC_NODE = 244.6030
ARG_OF_PERICENTER = 88.3442
MEAN_ANOMALY   = 239.0908

EPHEMERIS_TYPE = 0
CLASSIFICATION_TYPE = U
NORAD_CAT_ID   = 68348
ELEMENT_SET_NO = 999
REV_AT_EPOCH   = 282
BSTAR          = -.28409817E-3
MEAN_MOTION_DOT = -.56452E-3
MEAN_MOTION_DDOT = 0

