STARLINK-36237          
1 68337U 26059S   26092.25003472  .00048391  00000+0  24788-3 0  9997
2 68337  53.1595 244.6739 0000948  99.4849 193.8020 15.80824699  2823
STARLINK-36254          
1 68338U 26059T   26092.25003472  .00034043  00000+0  17570-3 0  9998
2 68338  53.1596 244.6561 0001072  85.5244 216.3033 15.80828494  2824
STARLINK-37200          
1 68339U 26059U   26092.25003472  .00016686  00000+0  88010-4 0  9990
2 68339  53.1595 244.6653 0000824 115.5922 181.9539 15.80848063  2829
STARLINK-37185          
1 68340U 26059V   26092.25003472 -.00068480  00000+0 -34625-3 0  9995
2 68340  53.1595 244.6478 0000807  81.7369 224.3538 15.80868131  2825
STARLINK-37181          
1 68341U 26059W   26092.25003472  .00016327  00000+0  86153-4 0  9991
2 68341  53.1594 244.6385 0001032  64.0900 246.2710 15.80860341  2828
STARLINK-37192          
1 68342U 26059X   26092.25003472  .00039909  00000+0  20515-3 0  9992
2 68342  53.1594 244.6209 0001054  87.5371 231.3811 15.80835731  2822
STARLINK-37158          
1 68343U 26059Y   26092.25003472 -.00045071  00000+0 -22596-3 0  9993
2 68343  53.1594 244.6121 0000804  65.9832 257.1890 15.80877413  2826
STARLINK-36380          
1 68344U 26059Z   26092.25003472  .00025087  00000+0  13048-3 0  9999
2 68344  53.1592 244.6299 0000482  22.9730 291.6690 15.80836871  2827
STARLINK-37214          
1 68345U 26059AA  26092.25003472  .00033802  00000+0  17444-3 0  9998
2 68345  53.1593 244.5941 0000436  62.3262 269.4055 15.80833362  2829
STARLINK-37169          
1 68346U 26059AB  26092.25003472  .00019384  00000+0  10164-3 0  9990
2 68346  53.1593 244.5850 0000618  96.3835 239.6071 15.80847306  2824
STARLINK-37136          
1 68347U 26059AC  26092.25003472  .00038320  00000+0  19708-3 0  9995
2 68347  53.1594 244.5765 0001080  85.7512 254.5048 15.80844613  2827
STARLINK-37182          
1 68348U 26059AD  26092.25003472 -.00056452  00000+0 -28410-3 0  9994
2 68348  53.1594 244.6030 0001033  88.3442 239.0908 15.80891208  2828
